{
    "links": {
        "self": "http://www.neowsapp.com/rest/v1/neo/3799726?api_key=iIulBulltgU6a56xZRHN4H3l9WmuAYTsLGpBGhQ2"
    },
    "id": "3799726",
    "neo_reference_id": "3799726",
    "name": "(2018 DF1)",
    "designation": "2018 DF1",
    "nasa_jpl_url": "http://ssd.jpl.nasa.gov/sbdb.cgi?sstr=3799726",
    "absolute_magnitude_h": 25.3,
    "estimated_diameter": {
        "kilometers": {
            "estimated_diameter_min": 0.0231502122,
            "estimated_diameter_max": 0.0517654482
        },
        "meters": {
            "estimated_diameter_min": 23.150212221,
            "estimated_diameter_max": 51.7654482198
        },
        "miles": {
            "estimated_diameter_min": 0.0143848705,
            "estimated_diameter_max": 0.0321655483
        },
        "feet": {
            "estimated_diameter_min": 75.9521422633,
            "estimated_diameter_max": 169.8341531374
        }
    },
    "is_potentially_hazardous_asteroid": false,
    "close_approach_data": [
        {
            "close_approach_date": "1900-03-11",
            "close_approach_date_full": "1900-Mar-11 21:33",
            "epoch_date_close_approach": -2202949620000,
            "relative_velocity": {
                "kilometers_per_second": "33.3703807232",
                "kilometers_per_hour": "120133.3706034984",
                "miles_per_hour": "74646.2046397127"
            },
            "miss_distance": {
                "astronomical": "0.4732746775",
                "lunar": "184.1038495475",
                "kilometers": "70800883.678936925",
                "miles": "43993629.106402565"
            },
            "orbiting_body": "Earth"
        },
        {
            "close_approach_date": "1975-01-16",
            "close_approach_date_full": "1975-Jan-16 18:28",
            "epoch_date_close_approach": 159128880000,
            "relative_velocity": {
                "kilometers_per_second": "23.3418166091",
                "kilometers_per_hour": "84030.5397926714",
                "miles_per_hour": "52213.3095728408"
            },
            "miss_distance": {
                "astronomical": "0.1109866609",
                "lunar": "43.1738110901",
                "kilometers": "16603368.069052283",
                "miles": "10316854.5192081854"
            },
            "orbiting_body": "Venus"
        },
        {
            "close_approach_date": "2018-02-17",
            "close_approach_date_full": "2018-Feb-17 14:33",
            "epoch_date_close_approach": 1518877980000,
            "relative_velocity": {
                "kilometers_per_second": "18.5026264672",
                "kilometers_per_hour": "66609.4552818916",
                "miles_per_hour": "41388.525144462"
            },
            "miss_distance": {
                "astronomical": "0.0193198884",
                "lunar": "7.5154365876",
                "kilometers": "2890214.153277708",
                "miles": "1795895.7980520504"
            },
            "orbiting_body": "Earth"
        }
    ],
    "orbital_data": {
        "orbit_id": "1",
        "orbit_determination_date": "2018-02-25 09:12:08",
        "first_observation_date": "2018-02-22",
        "last_observation_date": "2018-02-25",
        "data_arc_in_days": 3,
        "observations_used": 43,
        "orbit_uncertainty": "8",
        "minimum_orbit_intersection": ".00641181",
        "jupiter_tisserand_invariant": "4.371",
        "epoch_osculation": "2458173.5",
        "eccentricity": ".6164274328905553",
        "semi_major_axis": "1.470469725320792",
        "inclination": "6.258305108157607",
        "ascending_node_longitude": "152.9270997330739",
        "orbital_period": "651.3022194143823",
        "perihelion_distance": ".5640318473980162",
        "perihelion_argument": "259.3044109661116",
        "aphelion_distance": "2.376907603243568",
        "perihelion_time": "2458116.311153205181",
        "mean_anomaly": "31.61049391885461",
        "mean_motion": ".5527387889506866",
        "equinox": "J2000",
        "orbit_class": {
            "orbit_class_type": "APO",
            "orbit_class_description": "Near-Earth asteroid orbits which cross the Earth’s orbit similar to that of 1862 Apollo",
            "orbit_class_range": "a (semi-major axis) > 1.0 AU; q (perihelion) < 1.017 AU"
        }
    },
    "is_sentry_object": false
}